{
  "type": "FeatureCollection",
  "features": [
    {
      "type": "Feature",
      "properties": {
        "norad_id": 32326,
        "name": "FENGYUN 1C DEB",
        "group": "fengyun-1c-debris",
        "lat": 77.95673502078115,
        "lon": 138.86316342116766,
        "alt_km": 790.6609000689505,
        "timestamp": "2025-12-10T20:49:52.839645+00:00",
        "meta_object_name": "FENGYUN 1C DEB",
        "meta_object_id": "1999-025CXT",
        "meta_epoch": "2025-11-30T02:32:37.979232",
        "meta_mean_motion": 13.69261307,
        "meta_eccentricity": 0.03856265,
        "meta_inclination": 98.486,
        "meta_ra_of_asc_node": 264.9459,
        "meta_arg_of_pericenter": 173.0082,
        "meta_mean_anomaly": 187.6669,
        "meta_ephemeris_type": 0,
        "meta_classification_type": "U",
        "meta_norad_cat_id": 32326,
        "meta_element_set_no": 999,
        "meta_rev_at_epoch": 63009,
        "meta_bstar": 0.00044957354,
        "meta_mean_motion_dot": 6.22e-06,
        "meta_mean_motion_ddot": 0,
        "tle_line1": "1 32326U 99025CXT 25334.10599513  .00000622  00000+0  44957-3 0  9992",
        "tle_line2": "2 32326  98.4860 264.9459 0385626 173.0082 187.6669 13.69261307630092"
      },
      "geometry": {
        "type": "Point",
        "coordinates": [
          138.86316342116766,
          77.95673502078115
        ]
      }
    },
    {
      "type": "Feature",
      "properties": {
        "norad_id": 32331,
        "name": "FENGYUN 1C DEB",
        "group": "fengyun-1c-debris",
        "lat": -49.22301806328683,
        "lon": 121.38692203145139,
        "alt_km": 662.2070323088892,
        "timestamp": "2025-12-10T20:49:52.839655+00:00",
        "meta_object_name": "FENGYUN 1C DEB",
        "meta_object_id": "1999-025CXY",
        "meta_epoch": "2025-11-11T08:35:02.141088",
        "meta_mean_motion": 14.68670701,
        "meta_eccentricity": 0.0013407,
        "meta_inclination": 99.1837,
        "meta_ra_of_asc_node": 279.0061,
        "meta_arg_of_pericenter": 226.0291,
        "meta_mean_anomaly": 133.9806,
        "meta_ephemeris_type": 0,
        "meta_classification_type": "U",
        "meta_norad_cat_id": 32331,
        "meta_element_set_no": 999,
        "meta_rev_at_epoch": 60157,
        "meta_bstar": 0.0092524,
        "meta_mean_motion_dot": 0.0005428,
        "meta_mean_motion_ddot": 0,
        "tle_line1": "1 32331U 99025CXY 25315.35766367  .00054280  00000+0  92524-2 0  9998",
        "tle_line2": "2 32331  99.1837 279.0061 0013407 226.0291 133.9806 14.68670701601572"
      },
      "geometry": {
        "type": "Point",
        "coordinates": [
          121.38692203145139,
          -49.22301806328683
        ]
      }
    },
    {
      "type": "Feature",
      "properties": {
        "norad_id": 32332,
        "name": "FENGYUN 1C DEB",
        "group": "fengyun-1c-debris",
        "lat": 8.975508000791677,
        "lon": 37.46906407565813,
        "alt_km": 771.8519118474596,
        "timestamp": "2025-12-10T20:49:52.839665+00:00",
        "meta_object_name": "FENGYUN 1C DEB",
        "meta_object_id": "1999-025CXZ",
        "meta_epoch": "2025-12-05T10:09:55.704096",
        "meta_mean_motion": 13.97072998,
        "meta_eccentricity": 0.02849151,
        "meta_inclination": 99.1331,
        "meta_ra_of_asc_node": 33.5093,
        "meta_arg_of_pericenter": 332.9459,
        "meta_mean_anomaly": 25.7092,
        "meta_ephemeris_type": 0,
        "meta_classification_type": "U",
        "meta_norad_cat_id": 32332,
        "meta_element_set_no": 999,
        "meta_rev_at_epoch": 92934,
        "meta_bstar": 0.0024167195,
        "meta_mean_motion_dot": 4.715e-05,
        "meta_mean_motion_ddot": 0,
        "tle_line1": "1 32332U 99025CXZ 25339.42356139  .00004715  00000+0  24167-2 0  9991",
        "tle_line2": "2 32332  99.1331  33.5093 0284915 332.9459  25.7092 13.97072998929345"
      },
      "geometry": {
        "type": "Point",
        "coordinates": [
          37.46906407565813,
          8.975508000791677
        ]
      }
    },
    {
      "type": "Feature",
      "properties": {
        "norad_id": 32334,
        "name": "FENGYUN 1C DEB",
        "group": "fengyun-1c-debris",
        "lat": 11.660382630997866,
        "lon": -138.8202012922216,
        "alt_km": 911.943329804848,
        "timestamp": "2025-12-10T20:49:52.839696+00:00",
        "meta_object_name": "FENGYUN 1C DEB",
        "meta_object_id": "1999-025CYB",
        "meta_epoch": "2025-12-10T14:53:08.743776",
        "meta_mean_motion": 14.01639218,
        "meta_eccentricity": 0.00663601,
        "meta_inclination": 99.2529,
        "meta_ra_of_asc_node": 39.0008,
        "meta_arg_of_pericenter": 287.0109,
        "meta_mean_anomaly": 72.3791,
        "meta_ephemeris_type": 0,
        "meta_classification_type": "U",
        "meta_norad_cat_id": 32334,
        "meta_element_set_no": 999,
        "meta_rev_at_epoch": 93910,
        "meta_bstar": 0.00048210476,
        "meta_mean_motion_dot": 6.98e-06,
        "meta_mean_motion_ddot": 0,
        "tle_line1": "1 32334U 99025CYB 25344.62024009  .00000698  00000+0  48210-3 0  9991",
        "tle_line2": "2 32334  99.2529  39.0008 0066360 287.0109  72.3791 14.01639218939107"
      },
      "geometry": {
        "type": "Point",
        "coordinates": [
          -138.8202012922216,
          11.660382630997866
        ]
      }
    },
    {
      "type": "Feature",
      "properties": {
        "norad_id": 32340,
        "name": "FENGYUN 1C DEB",
        "group": "fengyun-1c-debris",
        "lat": -49.95049946145327,
        "lon": 1.3130510011462582,
        "alt_km": 629.9203402732965,
        "timestamp": "2025-12-10T20:49:52.839707+00:00",
        "meta_object_name": "FENGYUN 1C DEB",
        "meta_object_id": "1999-025CYH",
        "meta_epoch": "2025-12-08T23:27:25.144704",
        "meta_mean_motion": 14.74407409,
        "meta_eccentricity": 0.00342161,
        "meta_inclination": 98.9824,
        "meta_ra_of_asc_node": 348.3726,
        "meta_arg_of_pericenter": 306.271,
        "meta_mean_anomaly": 53.5335,
        "meta_ephemeris_type": 0,
        "meta_classification_type": "U",
        "meta_norad_cat_id": 32340,
        "meta_element_set_no": 999,
        "meta_rev_at_epoch": 97141,
        "meta_bstar": 0.003073469,
        "meta_mean_motion_dot": 0.0002058,
        "meta_mean_motion_ddot": 0,
        "tle_line1": "1 32340U 99025CYH 25342.97737436  .00020580  00000+0  30735-2 0  9993",
        "tle_line2": "2 32340  98.9824 348.3726 0034216 306.2710  53.5335 14.74407409971418"
      },
      "geometry": {
        "type": "Point",
        "coordinates": [
          1.3130510011462582,
          -49.95049946145327
        ]
      }
    },
    {
      "type": "Feature",
      "properties": {
        "norad_id": 32342,
        "name": "FENGYUN 1C DEB",
        "group": "fengyun-1c-debris",
        "lat": 80.48755735076857,
        "lon": -72.05910550351973,
        "alt_km": 840.2566663215612,
        "timestamp": "2025-12-10T20:49:52.839717+00:00",
        "meta_object_name": "FENGYUN 1C DEB",
        "meta_object_id": "1999-025CYK",
        "meta_epoch": "2025-12-10T12:32:46.790592",
        "meta_mean_motion": 14.1339733,
        "meta_eccentricity": 0.00076098,
        "meta_inclination": 98.6704,
        "meta_ra_of_asc_node": 353.198,
        "meta_arg_of_pericenter": 357.8709,
        "meta_mean_anomaly": 132.6154,
        "meta_ephemeris_type": 0,
        "meta_classification_type": "U",
        "meta_norad_cat_id": 32342,
        "meta_element_set_no": 999,
        "meta_rev_at_epoch": 93686,
        "meta_bstar": 0.0001543438,
        "meta_mean_motion_dot": 2.47e-06,
        "meta_mean_motion_ddot": 0,
        "tle_line1": "1 32342U 99025CYK 25344.52276378  .00000247  00000+0  15434-3 0  9999",
        "tle_line2": "2 32342  98.6704 353.1980 0007609 357.8709 132.6154 14.13397330936868"
      },
      "geometry": {
        "type": "Point",
        "coordinates": [
          -72.05910550351973,
          80.48755735076857
        ]
      }
    },
    {
      "type": "Feature",
      "properties": {
        "norad_id": 32343,
        "name": "FENGYUN 1C DEB",
        "group": "fengyun-1c-debris",
        "lat": -39.60464705175455,
        "lon": 144.48708005884478,
        "alt_km": 825.3111053611156,
        "timestamp": "2025-12-10T20:49:52.839727+00:00",
        "meta_object_name": "FENGYUN 1C DEB",
        "meta_object_id": "1999-025CYL",
        "meta_epoch": "2025-11-23T04:58:45.910848",
        "meta_mean_motion": 14.1981282,
        "meta_eccentricity": 0.01511129,
        "meta_inclination": 98.6065,
        "meta_ra_of_asc_node": 314.5087,
        "meta_arg_of_pericenter": 183.896,
        "meta_mean_anomaly": 176.1052,
        "meta_ephemeris_type": 0,
        "meta_classification_type": "U",
        "meta_norad_cat_id": 32343,
        "meta_element_set_no": 999,
        "meta_rev_at_epoch": 64436,
        "meta_bstar": 0.00029765257,
        "meta_mean_motion_dot": 6.65e-06,
        "meta_mean_motion_ddot": 0,
        "tle_line1": "1 32343U 99025CYL 25327.20747582  .00000665  00000+0  29765-3 0  9992",
        "tle_line2": "2 32343  98.6065 314.5087 0151112 183.8960 176.1052 14.19812820644366"
      },
      "geometry": {
        "type": "Point",
        "coordinates": [
          144.48708005884478,
          -39.60464705175455
        ]
      }
    }
  ]
}